OBJECT_NAME,OBJECT_ID,EPOCH,MEAN_MOTION,ECCENTRICITY,INCLINATION,RA_OF_ASC_NODE,ARG_OF_PERICENTER,MEAN_ANOMALY,EPHEMERIS_TYPE,CLASSIFICATION_TYPE,NORAD_CAT_ID,ELEMENT_SET_NO,REV_AT_EPOCH,BSTAR,MEAN_MOTION_DOT,MEAN_MOTION_DDOT
SKYSAT-C1,2016-040C,2026-07-23T13:18:05.269824,15.36853586,.0001052,96.9557,234.3127,184.1507,175.9730,0,U,41601,999,56345,.24102278E-3,.8608E-4,0
LAPAN-A3,2016-040E,2026-07-23T14:36:44.831808,15.33316994,.00084703,97.1510,199.5667,238.7209,121.3205,0,U,41603,999,56039,.10828267E-3,.3413E-4,0
GAOFEN-3,2016-049A,2026-07-23T13:50:32.434656,14.42219215,.00017784,98.4028,211.8144,82.0630,278.0762,0,U,41727,999,52389,.19339317E-4,.2E-6,0
SKYSAT-C4,2016-058B,2026-07-23T12:07:23.884320,15.49650272,.00035694,96.9177,224.7807,107.7824,252.3818,0,U,41771,999,55109,.31708867E-3,.17484E-3,0
SKYSAT-C5,2016-058C,2026-07-23T02:32:02.213088,15.33797689,.0003402,97.0456,243.1260,142.5858,217.5623,0,U,41772,999,54925,.22409363E-3,.7252E-4,0
SKYSAT-C2,2016-058D,2026-07-23T07:54:04.473216,15.42821230,.00006619,97.0165,225.0801,273.3925,86.7248,0,U,41773,999,55062,.27930384E-3,.12159E-3,0
SKYSAT-C3,2016-058E,2026-07-23T13:00:11.387808,15.54002189,.00028861,96.9002,234.0233,123.0560,237.0972,0,U,41774,999,55175,.37171487E-3,.23979E-3,0
ALSAT-1B,2016-059C,2026-07-23T14:24:23.721984,14.72299728,.00107795,97.7767,211.7938,106.3623,253.8771,0,U,41785,999,52593,.90718873E-4,.527E-5,0
PATHFINDER 1,2016-059E,2026-07-23T06:28:28.600608,14.67700551,.00299696,97.8182,201.9202,91.2135,269.2504,0,U,41787,999,52500,.10719047E-3,.568E-5,0
SCATSAT 1,2016-059H,2026-07-23T14:20:24.599616,14.79603582,.00557005,98.1171,268.7362,129.9347,230.6778,0,U,41790,999,10697,.16098803E-3,.1181E-4,0
GOKTURK 1A,2016-073A,2026-07-23T15:16:21.359712,14.62797594,.00014242,98.1199,98.7311,84.3384,275.7980,0,U,41875,999,51415,.75273962E-4,.337E-5,0
RESOURCESAT-2A,2016-074A,2026-07-23T14:22:57.183744,14.21611694,.00018755,98.7512,277.8033,8.3584,351.7624,0,U,41877,999,49947,.21442853E-3,.426E-5,0
CARTOSAT-2D,2017-008A,2026-07-23T10:46:43.191264,15.19329256,.00065057,97.4087,263.0730,117.0345,243.1554,0,U,41948,999,52308,.19095509E-3,.3968E-4,0
SENTINEL-2B,2017-013A,2026-07-23T15:23:09.648096,14.30817243,.00012364,98.5676,278.8984,92.5092,267.6233,0,U,42063,999,48985,.83496959E-4,.175E-5,0
CARTOSAT-2E,2017-036C,2026-07-23T14:22:12.932256,15.19302949,.00041821,97.4256,263.7967,159.7710,200.3691,0,U,42767,999,50367,.23677348E-3,.4931E-4,0
FORMOSAT-5,2017-049A,2026-07-23T12:49:27.435648,14.50894375,.00108328,98.2240,279.0343,337.4294,22.6424,0,U,42920,999,47194,.3565497E-4,.97E-6,0
SENTINEL-5P,2017-064A,2026-07-23T08:40:01.384896,14.19524290,.00012063,98.7929,146.2368,92.3775,267.7539,0,U,42969,999,45469,.35682577E-4,.31E-6,0
SKYSAT-C11,2017-068A,2026-07-23T09:22:50.919168,15.59689712,.00015078,97.4380,354.8568,147.1025,213.0325,0,U,42987,999,48888,.38261674E-3,.30498E-3,0
SKYSAT-C10,2017-068B,2026-07-23T08:13:56.731008,15.35239533,.00015638,97.4540,341.5668,109.7794,250.3618,0,U,42988,999,48790,.3123059E-3,.10607E-3,0
SKYSAT-C9,2017-068C,2026-07-23T07:40:29.192448,15.42362279,.00079441,97.4460,342.8295,17.0072,343.1440,0,U,42989,999,48832,.29466124E-3,.12642E-3,0
SKYSAT-C8,2017-068D,2026-07-23T07:46:18.741792,15.37611068,.00013124,97.4557,341.4865,107.4214,252.7174,0,U,42990,999,48786,.28468871E-3,.10428E-3,0
SKYSAT-C7,2017-068E,2026-07-23T07:38:44.654496,15.37559306,.00049583,97.4568,342.4736,351.7605,8.3557,0,U,42991,999,48792,.28090896E-3,.10274E-3,0
SKYSAT-C6,2017-068F,2026-07-23T08:17:55.476672,15.34273656,.00047978,97.4607,342.3178,68.5777,291.5978,0,U,42992,999,48786,.27416504E-3,.902E-4,0
CARTOSAT-2F,2018-004A,2026-07-23T15:09:42.051744,15.19225680,.00028377,97.4771,263.9055,119.9372,240.2144,0,U,43111,999,47286,.31284253E-3,.6522E-4,0
GAOFEN-1 02,2018-031A,2026-07-23T14:57:56.770272,14.76482231,.00016081,98.0507,267.0450,231.9439,128.1625,0,U,43259,999,44807,.18000132E-3,.1202E-4,0
GAOFEN-1 03,2018-031B,2026-07-23T14:26:28.989024,14.76471273,.00017372,98.0498,266.8773,347.8054,12.3114,0,U,43260,999,44806,.98575647E-4,.635E-5,0
GAOFEN-1 04,2018-031D,2026-07-23T15:29:13.748928,14.76445907,.00007987,98.0509,267.1160,56.7954,303.3332,0,U,43262,999,44806,.82460859E-4,.522E-5,0
SENTINEL-3B,2018-039A,2026-07-23T10:43:27.107328,14.26738084,.00013167,98.6229,271.4552,117.9651,242.1662,0,U,43437,999,42929,.48154908E-4,.73E-6,0
GAOFEN-5 01,2018-043A,2026-07-23T08:51:34.557408,14.60627255,.00015864,98.4599,176.7211,13.8900,346.2343,0,U,43461,999,43697,.62746351E-4,.256E-5,0
GAOFEN-6,2018-048A,2026-07-23T14:24:36.415008,14.76391401,.00119036,98.0950,267.3218,58.1067,302.1299,0,U,43484,999,43876,.13114633E-3,.86E-5,0
