SKYSAT-C1               
1 41601U 16040C   26204.55422766  .00008608  00000+0  24102-3 0  9997
2 41601  96.9557 234.3127 0001052 184.1507 175.9730 15.36853586563456
LAPAN-A3                
1 41603U 16040E   26204.60885222  .00003413  00000+0  10828-3 0  9994
2 41603  97.1510 199.5667 0008470 238.7209 121.3205 15.33316994560393
GAOFEN-3                
1 41727U 16049A   26204.57676429  .00000020  00000+0  19339-4 0  9991
2 41727  98.4028 211.8144 0001778  82.0630 278.0762 14.42219215523897
SKYSAT-C4               
1 41771U 16058B   26204.50513755  .00017484  00000+0  31709-3 0  9991
2 41771  96.9177 224.7807 0003569 107.7824 252.3818 15.49650272551093
SKYSAT-C5               
1 41772U 16058C   26204.10558117  .00007252  00000+0  22409-3 0  9998
2 41772  97.0456 243.1260 0003402 142.5858 217.5623 15.33797689549253
SKYSAT-C2               
1 41773U 16058D   26204.32921844  .00012159  00000+0  27930-3 0  9990
2 41773  97.0165 225.0801 0000661 273.3925  86.7248 15.42821230550625
SKYSAT-C3               
1 41774U 16058E   26204.54179847  .00023979  00000+0  37171-3 0  9993
2 41774  96.9002 234.0233 0002886 123.0560 237.0972 15.54002189551757
ALSAT-1B                
1 41785U 16059C   26204.60027456  .00000527  00000+0  90719-4 0  9993
2 41785  97.7767 211.7938 0010779 106.3623 253.8771 14.72299728525934
PATHFINDER 1            
1 41787U 16059E   26204.26977547  .00000568  00000+0  10719-3 0  9998
2 41787  97.8182 201.9202 0029969  91.2135 269.2504 14.67700551525002
SCATSAT 1               
1 41790U 16059H   26204.59750694  .00001181  00000+0  16099-3 0  9999
2 41790  98.1171 268.7362 0055700 129.9347 230.6778 14.79603582106977
GOKTURK 1A              
1 41875U 16073A   26204.63635833  .00000337  00000+0  75274-4 0  9994
2 41875  98.1199  98.7311 0001424  84.3384 275.7980 14.62797594514152
RESOURCESAT-2A          
1 41877U 16074A   26204.59927296  .00000426  00000+0  21443-3 0  9996
2 41877  98.7512 277.8033 0001875   8.3584 351.7624 14.21611694499476
CARTOSAT-2D             
1 41948U 17008A   26204.44911101  .00003968  00000+0  19096-3 0  9990
2 41948  97.4087 263.0730 0006505 117.0345 243.1554 15.19329256523086
SENTINEL-2B             
1 42063U 17013A   26204.64108389  .00000175  00000+0  83497-4 0  9997
2 42063  98.5676 278.8984 0001236  92.5092 267.6233 14.30817243489859
CARTOSAT-2E             
1 42767U 17036C   26204.59876079  .00004931  00000+0  23677-3 0  9992
2 42767  97.4256 263.7967 0004182 159.7710 200.3691 15.19302949503671
FORMOSAT-5              
1 42920U 17049A   26204.53434532  .00000097  00000+0  35655-4 0  9994
2 42920  98.2240 279.0343 0010832 337.4294  22.6424 14.50894375471949
SENTINEL-5P             
1 42969U 17064A   26204.36112714  .00000031  00000+0  35683-4 0  9999
2 42969  98.7929 146.2368 0001206  92.3775 267.7539 14.19524290454692
SKYSAT-C11              
1 42987U 17068A   26204.39086712  .00030498  00000+0  38262-3 0  9999
2 42987  97.4380 354.8568 0001507 147.1025 213.0325 15.59689712488880
SKYSAT-C10              
1 42988U 17068B   26204.34301772  .00010607  00000+0  31231-3 0  9990
2 42988  97.4540 341.5668 0001563 109.7794 250.3618 15.35239533487909
SKYSAT-C9               
1 42989U 17068C   26204.31978232  .00012642  00000+0  29466-3 0  9997
2 42989  97.4460 342.8295 0007944  17.0072 343.1440 15.42362279488323
SKYSAT-C8               
1 42990U 17068D   26204.32382803  .00010428  00000+0  28469-3 0  9995
2 42990  97.4557 341.4865 0001312 107.4214 252.7174 15.37611068487869
SKYSAT-C7               
1 42991U 17068E   26204.31857239  .00010274  00000+0  28091-3 0  9995
2 42991  97.4568 342.4736 0004958 351.7605   8.3557 15.37559306487920
SKYSAT-C6               
1 42992U 17068F   26204.34578098  .00009020  00000+0  27417-3 0  9990
2 42992  97.4607 342.3178 0004797  68.5777 291.5978 15.34273656487862
CARTOSAT-2F             
1 43111U 18004A   26204.63173671  .00006522  00000+0  31284-3 0  9996
2 43111  97.4771 263.9055 0002837 119.9372 240.2144 15.19225680472862
GAOFEN-1 02             
1 43259U 18031A   26204.62357373  .00001202  00000+0  18000-3 0  9992
2 43259  98.0507 267.0450 0001608 231.9439 128.1625 14.76482231448070
GAOFEN-1 03             
1 43260U 18031B   26204.60172441  .00000635  00000+0  98576-4 0  9999
2 43260  98.0498 266.8773 0001737 347.8054  12.3114 14.76471273448069
GAOFEN-1 04             
1 43262U 18031D   26204.64529802  .00000522  00000+0  82461-4 0  9993
2 43262  98.0509 267.1160 0000798  56.7954 303.3332 14.76445907448069
SENTINEL-3B             
1 43437U 18039A   26204.44684152  .00000073  00000+0  48155-4 0  9996
2 43437  98.6229 271.4552 0001316 117.9651 242.1662 14.26738084429298
GAOFEN-5 01             
1 43461U 18043A   26204.36914997  .00000256  00000+0  62746-4 0  9997
2 43461  98.4599 176.7211 0001586  13.8900 346.2343 14.60627255436972
GAOFEN-6                
1 43484U 18048A   26204.60042147  .00000860  00000+0  13115-3 0  9999
2 43484  98.0950 267.3218 0011903  58.1067 302.1299 14.76391401438766
